[{"OBJECT_NAME":"QIANFAN-104","OBJECT_ID":"2025-233P","EPOCH":"2026-03-09T22:37:03.406656","MEAN_MOTION":13.51010539,"ECCENTRICITY":0.00021082,"INCLINATION":88.9948,"RA_OF_ASC_NODE":53.1192,"ARG_OF_PERICENTER":85.1349,"MEAN_ANOMALY":275.0043,"EPHEMERIS_TYPE":0,"CLASSIFICATION_TYPE":"U","NORAD_CAT_ID":66046,"ELEMENT_SET_NO":999,"REV_AT_EPOCH":1983,"BSTAR":7.1555693e-5,"MEAN_MOTION_DOT":5.8e-7,"MEAN_MOTION_DDOT":0},{"OBJECT_NAME":"SL-14 DEB","OBJECT_ID":"1991-056BJ","EPOCH":"2026-03-09T06:43:50.193120","MEAN_MOTION":13.36883523,"ECCENTRICITY":0.00854322,"INCLINATION":82.569,"RA_OF_ASC_NODE":162.8887,"ARG_OF_PERICENTER":135.6536,"MEAN_ANOMALY":225.1483,"EPHEMERIS_TYPE":0,"CLASSIFICATION_TYPE":"U","NORAD_CAT_ID":45320,"ELEMENT_SET_NO":999,"REV_AT_EPOCH":29362,"BSTAR":0.0021020308,"MEAN_MOTION_DOT":1.126e-5,"MEAN_MOTION_DDOT":0}]
